station_code,station_name,lat,lon,municipality_sk,municipality_name,province_sk,number_of_monuments
CAS,Castricum,52.545833587646,4.6586112976074,7f6ffaa6bb0b408017b62254211691b5,Castricum,c9f0f895fb98ab9159f51fd0297e236d,48
DDR,Dordrecht,51.807220458984,4.668333530426,2b24d495052a8ce66358eb576b8912c8,Dordrecht,45c48cce2e2d7fbdea1afc51c7c6ad26,879
BNC,Barneveld Centrum,52.139999389648,5.590277671814,d9d4f495e875a2e075a1a4a6e1b9770f,Barneveld,1679091c5a880faf6fb5e6087eb1b2dc,48
HT,'s-Hertogenbosch,51.69048,5.29362,091d584fced301b442654dd8c23b3fc9,'s-Hertogenbosch,6512bd43d9caa6e02c990b0a82652dca,543
ZBM,Zaltbommel,51.80888748169,5.2633333206177,d1fe173d08e959397adf34b1d77e88d7,Zaltbommel,1679091c5a880faf6fb5e6087eb1b2dc,244
HFD,Hoofddorp,52.293334960938,4.7005553245544,eb160de1de89d9058fcb0b968dbbbd68,Haarlemmermeer,c9f0f895fb98ab9159f51fd0297e236d,36
HIL,Hillegom,52.302501678467,4.5655555725098,37a749d808e46495a8da1e5352d03cae,Hillegom,45c48cce2e2d7fbdea1afc51c7c6ad26,7
BRN,Baarn,52.208332061768,5.2808332443237,3ef815416f775098fe977004015c6193,Baarn,8f14e45fceea167a5a36dedd4bea2543,152
ARN,Arnemuiden,51.501667022705,3.6691665649414,cedebb6e872f539bef8c3f919874e9d7,Middelburg (Z.),d3d9446802a44259755d38e6d163e820,1156
ZH,Zuidhorn,53.2486292,6.4062361,f9b902fc3289af4dd08de5d1de54f68f,Westerkwartier,c4ca4238a0b923820dcc509a6f75849b,256
HMN,Hemmen-Dodewaard,51.9222129,5.6737254,49182f81e6a13cf5eaa496d51fea6406,Neder-Betuwe,1679091c5a880faf6fb5e6087eb1b2dc,48
DWE,De Westereen,53.24817,6.03463,b2eb7349035754953b57a32e2841bda5,Dantumadiel,c81e728d9d4c2f636f067f89cc14862c,37
WS,Winschoten,53.1392377,7.035101,eddea82ad2755b24c4e168c5fc2ebd40,Oldambt,c4ca4238a0b923820dcc509a6f75849b,212
BDG,Bodegraven,52.081390380859,4.7461109161377,950a4152c2b4aa3ad78bdd6b366cc179,Bodegraven-Reeuwijk,45c48cce2e2d7fbdea1afc51c7c6ad26,53
HDE,'t Harde,52.4091682,5.893611,9f61408e3afb633e50cdf1b20de6f466,Elburg,1679091c5a880faf6fb5e6087eb1b2dc,323
DLD,Den Dolder,52.140277862549,5.2427778244019,ec8956637a99787bd197eacd77acce5e,Zeist,8f14e45fceea167a5a36dedd4bea2543,180
DZ,Delfzijl,53.3336625,6.9240797,819f46e52c25763a55cc642422644317,Eemsdelta,c4ca4238a0b923820dcc509a6f75849b,397
WV,Wolvega,52.880832672119,6.0036110877991,70efdf2ec9b086079795c442636b55fb,Weststellingwerf,c81e728d9d4c2f636f067f89cc14862c,39
SWK,Steenwijk,52.791510992432,6.1145557632446,e3796ae838835da0b6f6ea37bcf8bcb7,Steenwijkerland,a87ff679a2f3e71d9181a67b7542122c,279
VSV,Varsseveld,51.937257,6.458839,fe131d7f5a6b38b23cc967316c13dae2,Oude IJsselstreek,1679091c5a880faf6fb5e6087eb1b2dc,80
ZZS,Zaandijk Zaanse Schans,52.469165802002,4.8049998283386,013d407166ec4fa56eb1e1f8cbe183b9,Zaanstad,c9f0f895fb98ab9159f51fd0297e236d,275
KW,Kropswolde,53.1617362,6.7220882,b83aac23b9528732c23cc7352950e880,Midden-Groningen,c4ca4238a0b923820dcc509a6f75849b,184
ZB,Zuidbroek,53.159612280006,6.8679141998291,b83aac23b9528732c23cc7352950e880,Midden-Groningen,c4ca4238a0b923820dcc509a6f75849b,184
BF,Baflo,53.3608969,6.5185581,2f2b265625d76a6704b08093c652fd79,Het Hogeland,c4ca4238a0b923820dcc509a6f75849b,562
WFM,Warffum,53.3908431,6.5671364,2f2b265625d76a6704b08093c652fd79,Het Hogeland,c4ca4238a0b923820dcc509a6f75849b,562
DRP,Dronryp,53.1778086,5.6347411,89f0fd5c927d466d6ec9a21b9ac34ffa,Waadhoeke,c81e728d9d4c2f636f067f89cc14862c,503
BKF,Bovenkarspel Flora,52.696109771729,5.2527775764465,a8f15eda80c50adb0e71943adc8015cf,Stede Broec,c9f0f895fb98ab9159f51fd0297e236d,15
AC,Abcoude,52.2785,4.977,a2557a7b2e94197ff767970b67041697,De Ronde Venen,8f14e45fceea167a5a36dedd4bea2543,171
BLL,Bloemendaal,52.404167175293,4.6275000572205,698d51a19d8a121ce581499d7b701668,Bloemendaal,c9f0f895fb98ab9159f51fd0297e236d,270
VNDC,Veenendaal Centrum,52.020000457764,5.548611164093,ed3d2c21991e3bef5e069713af9fa6ca,Veenendaal,8f14e45fceea167a5a36dedd4bea2543,19
GD,Gouda,52.017501831055,4.7044444084167,8d5e957f297893487bd98fa830fa6413,Gouda,45c48cce2e2d7fbdea1afc51c7c6ad26,354
VG,Vught,51.655555725098,5.2919445037842,9cfdf10e8fc047a44b08ed031e1f0ed1,Vught,6512bd43d9caa6e02c990b0a82652dca,144
RTD,Rotterdam Centraal,51.92499923706,4.468888759613,9766527f2b5d3e95d4a733fcfb77bd7e,Rotterdam,45c48cce2e2d7fbdea1afc51c7c6ad26,617
BGN,Bergen op Zoom,51.49388885498,4.2961111068726,bd686fd640be98efaae0091fa301e613,Bergen op Zoom,6512bd43d9caa6e02c990b0a82652dca,324
WW,Winterswijk,51.9677307,6.7155181,28dd2c7955ce926456240b2ff0100bde,Winterswijk,1679091c5a880faf6fb5e6087eb1b2dc,81
PT,Putten,52.264999389648,5.5752778053284,a3f390d88e4c41f2747bfa2f1b5f87db,Putten,1679091c5a880faf6fb5e6087eb1b2dc,99
OMN,Ommen,52.50944519043,6.4158334732056,19ca14e7ea6328a42e0eb13d585e4c22,Ommen,a87ff679a2f3e71d9181a67b7542122c,105
HWZB,Halfweg-Zwanenburg,52.385935,4.747165,eb160de1de89d9058fcb0b968dbbbd68,Haarlemmermeer,c9f0f895fb98ab9159f51fd0297e236d,36
NVP,Nieuw Vennep,52.258888244629,4.6455554962158,eb160de1de89d9058fcb0b968dbbbd68,Haarlemmermeer,c9f0f895fb98ab9159f51fd0297e236d,36
GND,Hardinxveld-Giessendam,51.830554962158,4.8358335494995,f2217062e9a397a1dca429e7d70bc6ca,Hardinxveld-Giessendam,45c48cce2e2d7fbdea1afc51c7c6ad26,11
EDC,Ede Centrum,52.043609619141,5.668333530426,b53b3a3d6ab90ce0268229151c9bde11,Ede,1679091c5a880faf6fb5e6087eb1b2dc,222
ASD,Amsterdam Centraal,52.378887176514,4.9002776145935,a97da629b098b75c294dffdc3e463904,Amsterdam,c9f0f895fb98ab9159f51fd0297e236d,7684
HD,Harderwijk,52.337501525879,5.619722366333,093f65e080a295f8076b1c5722a46aa2,Harderwijk,1679091c5a880faf6fb5e6087eb1b2dc,109
ZP,Zutphen,52.145278930664,6.1941666603088,43ec517d68b6edd3015b3edc9a11367b,Zutphen,1679091c5a880faf6fb5e6087eb1b2dc,438
EMN,Emmen,52.790000915527,6.8994445800781,98f13708210194c475687be6106a3b84,Emmen,eccbc87e4b5ce2fe28308fd9f2a7baf3,116
ZA,Zetten-Andelst,51.920056,5.7228408,53c3bce66e43be4f209556518c2fcb54,Overbetuwe,1679091c5a880faf6fb5e6087eb1b2dc,111
GP,Geldrop,51.419723510742,5.5505557060242,9fd81843ad7f202f26c1a174c7357585,Geldrop-Mierlo,6512bd43d9caa6e02c990b0a82652dca,42
BSMZ,Bussum Zuid,52.26583480835,5.1630554199219,5737c6ec2e0716f3d8a7a5c4e0de0d9a,Gooise Meren,c9f0f895fb98ab9159f51fd0297e236d,315
SSH,Sassenheim,52.215278,4.517222,f718499c1c8cef6730f9fd03c8125cab,Teylingen,45c48cce2e2d7fbdea1afc51c7c6ad26,104
SBK,Spaubeek,50.94327,5.850529,e165421110ba03099a1c0393373c5b43,Beek (L.),c20ad4d76fe97759aa27a0c99bff6710,54
APG,Appingedam,53.3258135,6.8619577,819f46e52c25763a55cc642422644317,Eemsdelta,c4ca4238a0b923820dcc509a6f75849b,397
DZW,Delfzijl West,53.3320834,6.9069092,819f46e52c25763a55cc642422644317,Eemsdelta,c4ca4238a0b923820dcc509a6f75849b,397
GLN,Geleen Oost,50.966945648193,5.8430557250977,37bc2f75bf1bcfe8450a1a41c200364c,Sittard-Geleen,c20ad4d76fe97759aa27a0c99bff6710,258
EDN,Eijsden,50.771945953369,5.710000038147,158f3069a435b314a80bdcb024f8e422,Eijsden-Margraten,c20ad4d76fe97759aa27a0c99bff6710,394
ZDK,Zaandam Kogerveld,52.456665039062,4.8202776908875,013d407166ec4fa56eb1e1f8cbe183b9,Zaanstad,c9f0f895fb98ab9159f51fd0297e236d,275
BKG,Bovenkarspel-Grootebroek,52.694999694824,5.2377777099609,a8f15eda80c50adb0e71943adc8015cf,Stede Broec,c9f0f895fb98ab9159f51fd0297e236d,15
EHV,Eindhoven Centraal,51.443332672119,5.4813890457153,854d6fae5ee42911677c739ee1734486,Eindhoven,6512bd43d9caa6e02c990b0a82652dca,153
TL,Tiel,51.889446258545,5.4222221374512,d2ddea18f00665ce8623e36bd4e3c7c5,Tiel,1679091c5a880faf6fb5e6087eb1b2dc,103
NM,Nijmegen,51.843612670898,5.8522224426269,3295c76acbf4caaed33c36b1b5fc2cb1,Nijmegen,1679091c5a880faf6fb5e6087eb1b2dc,261
DL,Dalfsen,52.498332977295,6.25861120224,8e296a067a37563370ded05f5a3bf3ec,Dalfsen,a87ff679a2f3e71d9181a67b7542122c,121
VDM,Veendam,53.10324,6.88475,a87ff679a2f3e71d9181a67b7542122c,Veendam,c4ca4238a0b923820dcc509a6f75849b,76
BN,Borne,52.298889160156,6.7480554580689,1ff1de774005f8da13f42943881c655f,Borne,a87ff679a2f3e71d9181a67b7542122c,39
WT,Weert,51.248611450195,5.7036108970642,19f3cd308f1455b3fa09a282e0d496f4,Weert,c20ad4d76fe97759aa27a0c99bff6710,98
HVS,Hilversum,52.225833892822,5.1819443702698,a0a080f42e6f13b3a2df133f073095dd,Hilversum,c9f0f895fb98ab9159f51fd0297e236d,216
ES,Enschede,52.222499847412,6.8899998664856,02e74f10e0327ad868d138f2b4fdd6f0,Enschede,a87ff679a2f3e71d9181a67b7542122c,151
VRY,Venray,51.526568099007,6.0141777992248,077e29b11be80ab57e1a2ecabb7da330,Venray,c20ad4d76fe97759aa27a0c99bff6710,100
GN,Groningen,53.210556030273,6.5647220611572,c4ca4238a0b923820dcc509a6f75849b,Groningen,c4ca4238a0b923820dcc509a6f75849b,844
KRD,Kerkrade Centrum,50.861667633057,6.0574998855591,555d6702c950ecb729a966504af0a635,Kerkrade,c20ad4d76fe97759aa27a0c99bff6710,81
RHN,Rhenen,51.958610534668,5.5783333778381,812b4ba287f5ee0bc9d43bbf5bbe87fb,Rhenen,8f14e45fceea167a5a36dedd4bea2543,61
TB,Tilburg,51.560554504395,5.0836110115051,115f89503138416a242f40fb7d7f338e,Tilburg,6512bd43d9caa6e02c990b0a82652dca,338
BET,Best,51.509998321533,5.3891668319702,a597e50502f5ff68e3e25b9114205d4a,Best,6512bd43d9caa6e02c990b0a82652dca,25
APD,Apeldoorn,52.209167480469,5.9702777862549,f7177163c833dff4b38fc8d2872f1ec6,Apeldoorn,1679091c5a880faf6fb5e6087eb1b2dc,211
SGN,Schagen,52.784442901611,4.8052778244019,65ded5353c5ee48d0b7d48c591b8f430,Schagen,c9f0f895fb98ab9159f51fd0297e236d,99
EST,Elst,51.916942596435,5.8550000190735,53c3bce66e43be4f209556518c2fcb54,Overbetuwe,1679091c5a880faf6fb5e6087eb1b2dc,111
KTR,Kesteren,51.9313869,5.5833465,49182f81e6a13cf5eaa496d51fea6406,Neder-Betuwe,1679091c5a880faf6fb5e6087eb1b2dc,48
FWD,Feanwâlden,53.2351834,5.9886615,b2eb7349035754953b57a32e2841bda5,Dantumadiel,c81e728d9d4c2f636f067f89cc14862c,37
NSCH,Bad Nieuweschans,53.1844,7.19937,eddea82ad2755b24c4e168c5fc2ebd40,Oldambt,c4ca4238a0b923820dcc509a6f75849b,212
SDA,Scheemda,53.1655362,6.9777775,eddea82ad2755b24c4e168c5fc2ebd40,Oldambt,c4ca4238a0b923820dcc509a6f75849b,212
ODB,Oudenbosch,51.587776184082,4.5333333015442,d6baf65e0b240ce177cf70da146c8dc8,Halderberge,6512bd43d9caa6e02c990b0a82652dca,67
HDG,Hurdegaryp,53.2187783,5.934543,cfecdb276f634854f3ef915e2e980c31,Tytsjerksteradiel,c81e728d9d4c2f636f067f89cc14862c,157
LP,Loppersum,53.3347145,6.7472625,819f46e52c25763a55cc642422644317,Eemsdelta,c4ca4238a0b923820dcc509a6f75849b,397
CK,Cuijk,51.726682587905,5.8742952346802,40008b9a5380fcacce3976bf7c08af5b,Land van Cuijk,6512bd43d9caa6e02c990b0a82652dca,497
VLB,Vierlingsbeek,51.59193,5.99714,40008b9a5380fcacce3976bf7c08af5b,Land van Cuijk,6512bd43d9caa6e02c990b0a82652dca,497
KZ,Koog aan de Zaan,52.458610534668,4.8055553436279,013d407166ec4fa56eb1e1f8cbe183b9,Zaanstad,c9f0f895fb98ab9159f51fd0297e236d,275
ZD,Zaandam,52.438888549805,4.8136110305786,013d407166ec4fa56eb1e1f8cbe183b9,Zaanstad,c9f0f895fb98ab9159f51fd0297e236d,275
HGZ,Hoogezand-Sappemeer,53.159818131676,6.7707538604736,b83aac23b9528732c23cc7352950e880,Midden-Groningen,c4ca4238a0b923820dcc509a6f75849b,184
IJT,IJlst,53.0146614,5.6160801,9dfcd5e558dfa04aaf37f137a1d9d3e5,Súdwest-Fryslân,c81e728d9d4c2f636f067f89cc14862c,733
KMW,Koudum-Molkwerum,52.9028197,5.4106913,9dfcd5e558dfa04aaf37f137a1d9d3e5,Súdwest-Fryslân,c81e728d9d4c2f636f067f89cc14862c,733
SK,Sneek,53.0328688,5.6523969,9dfcd5e558dfa04aaf37f137a1d9d3e5,Súdwest-Fryslân,c81e728d9d4c2f636f067f89cc14862c,733
GDM,Geldermalsen,51.88301,5.27127,6da37dd3139aa4d9aa55b8d237ec5d4a,West Betuwe,1679091c5a880faf6fb5e6087eb1b2dc,323
SRN,Susteren,51.061389923096,5.8630557060242,0f49c89d1e7298bb9930789c8ed59d48,Echt-Susteren,c20ad4d76fe97759aa27a0c99bff6710,61
HGLG,Hengelo Gezondheidspark,52.261667,6.767778,c16a5320fa475530d9583c34fd356ef5,Hengelo (O.),a87ff679a2f3e71d9181a67b7542122c,77
DT,Delft,52.00666809082,4.3563890457153,0a09c8844ba8f0936c20bd791130d6b6,Delft,45c48cce2e2d7fbdea1afc51c7c6ad26,696
BV,Beverwijk,52.478332519531,4.6566667556763,2723d092b63885e0d7c260cc007e8b9d,Beverwijk,c9f0f895fb98ab9159f51fd0297e236d,41
EML,Ermelo,52.301666259766,5.6147222518921,66f041e16a60928b05a7e228a89c3799,Ermelo,1679091c5a880faf6fb5e6087eb1b2dc,95
GVC,Den Haag Centraal,52.080276489258,4.3249998092651,47d1e990583c9c67424d369f3414728e,'s-Gravenhage,45c48cce2e2d7fbdea1afc51c7c6ad26,1164
HM,Helmond,51.475555419922,5.6619443893433,69adc1e107f7f7d035d7baf04342e1ca,Helmond,6512bd43d9caa6e02c990b0a82652dca,74
WTV,Westervoort,51.96286,5.9695,fbd7939d674997cdb4692d34de8633c4,Westervoort,1679091c5a880faf6fb5e6087eb1b2dc,5
DVN,Duiven,51.943332672119,6.0147223472595,a684eceee76fc522773286a895bc8436,Duiven,1679091c5a880faf6fb5e6087eb1b2dc,12
EKZ,Enkhuizen,52.699165344238,5.286388874054,2b44928ae11fb9384c4cf38708677c48,Enkhuizen,c9f0f895fb98ab9159f51fd0297e236d,361
LC,Lochem,52.166667938232,6.4263887405395,03afdbd66e7929b125f8597834fa83a4,Lochem,1679091c5a880faf6fb5e6087eb1b2dc,194
SDT,Sliedrecht,51.829723358154,4.7783331871033,006f52e9102a8d3be2fe5614f42ba989,Sliedrecht,45c48cce2e2d7fbdea1afc51c7c6ad26,8
HR,Heerenveen,52.961387634277,5.9141664505005,45c48cce2e2d7fbdea1afc51c7c6ad26,Heerenveen,c81e728d9d4c2f636f067f89cc14862c,156
ATN,Aalten,51.921326524551,6.5786272287369,17e62166fc8586dfa4d1bc0e1742c08b,Aalten,1679091c5a880faf6fb5e6087eb1b2dc,62
VZ,Vriezenveen,52.40203,6.60041,20f07591c6fcb220ffe637cda29bb3f6,Twenterand,a87ff679a2f3e71d9181a67b7542122c,25
LDM,Leerdam,51.894721984863,5.0913887023926,c042f4db68f23406c6cecf84a7ebb0fe,Vijfheerenlanden,8f14e45fceea167a5a36dedd4bea2543,342
VK,Valkenburg,50.869720458984,5.8322219848633,03c6b06952c750899bb03d998e631860,Valkenburg aan de Geul,c20ad4d76fe97759aa27a0c99bff6710,181
WH,Wijhe,52.390277862549,6.1405553817749,26e359e83860db1d11b6acca57d8ea88,Olst-Wijhe,a87ff679a2f3e71d9181a67b7542122c,114
HKS,Hoogkarspel,52.69055557251,5.1838889122009,a8baa56554f96369ab93e4f3bb068c22,Drechterland,c9f0f895fb98ab9159f51fd0297e236d,61
APN,Alphen a/d Rijn,52.124443054199,4.6577777862549,1385974ed5904a438616ff7bdb3f7439,Alphen aan den Rijn,45c48cce2e2d7fbdea1afc51c7c6ad26,168
BSK,Boskoop,52.077777862549,4.6469445228577,1385974ed5904a438616ff7bdb3f7439,Alphen aan den Rijn,45c48cce2e2d7fbdea1afc51c7c6ad26,168
HRT,Horst-Sevenum,51.426387786865,6.0422220230103,c52f1bd66cc19d05628bd8bf27af3ad6,Horst aan de Maas,c20ad4d76fe97759aa27a0c99bff6710,86
LTV,Lichtenvoorde-Groenlo,52.01188,6.59641,502e4a16930e414107ee22b6198c578f,Oost Gelre,1679091c5a880faf6fb5e6087eb1b2dc,41
RSW,Rijswijk,52.039722442627,4.3191666603088,7e7757b1e12abcb736ab9a754ffb617a,Rijswijk (ZH.),45c48cce2e2d7fbdea1afc51c7c6ad26,88
CPS,Capelle Schollevaar,51.954166412354,4.5841665267944,903ce9225fca3e988c2af215d4e544d3,Capelle aan den IJssel,45c48cce2e2d7fbdea1afc51c7c6ad26,17
RSN,Rijssen,52.3122215271,6.5202779769897,d296c101daa88a51f6ca8cfc1ac79b50,Rijssen-Holten,a87ff679a2f3e71d9181a67b7542122c,31
DA,Daarlerveen,52.4407702,6.5759947,34173cb38f07f89ddbebc2ac9128303f,Hellendoorn,a87ff679a2f3e71d9181a67b7542122c,30
BMR,Boxmeer,51.644521767653,5.9390330314636,40008b9a5380fcacce3976bf7c08af5b,Land van Cuijk,6512bd43d9caa6e02c990b0a82652dca,497
HWD,Heerhugowaard,52.669723510742,4.8227777481079,04025959b191f8f9de3f924f0940515f,Dijk en Waard,c9f0f895fb98ab9159f51fd0297e236d,17
ANA,Anna Paulowna,52.867221832275,4.8111109733581,ad13a2a07ca4b7642959dc0c4c740ab6,Hollands Kroon,c9f0f895fb98ab9159f51fd0297e236d,128
UHZ,Uithuizen,53.4099568,6.6748869,2f2b265625d76a6704b08093c652fd79,Het Hogeland,c4ca4238a0b923820dcc509a6f75849b,562
ZLW,Lage Zwaluwe,51.69111251831,4.6630554199219,6a9aeddfc689c1d0e3b9ccc3ab651bc5,Moerdijk,6512bd43d9caa6e02c990b0a82652dca,122
EC,Echt,51.100555419922,5.8788890838623,0f49c89d1e7298bb9930789c8ed59d48,Echt-Susteren,c20ad4d76fe97759aa27a0c99bff6710,61
BRD,Barendrecht,51.854721069336,4.5533332824707,0f28b5d49b3020afeecd95b4009adf4c,Barendrecht,45c48cce2e2d7fbdea1afc51c7c6ad26,20
NS,Nunspeet,52.370834350586,5.7852778434753,9778d5d219c5080b9a6a17bef029331c,Nunspeet,1679091c5a880faf6fb5e6087eb1b2dc,65
DMN,Diemen,52.34515,4.967566,73278a4a86960eeb576a8fd4c9ec6997,Diemen,c9f0f895fb98ab9159f51fd0297e236d,17
GS,Goes,51.498054504395,3.8905556201935,8f53295a73878494e9bc8dd6c3c7104f,Goes,d3d9446802a44259755d38e6d163e820,243
HDR,Den Helder,52.955276489258,4.7611112594605,4c56ff4ce4aaf9573aa5dff913df997a,Den Helder,c9f0f895fb98ab9159f51fd0297e236d,44
MT,Maastricht,50.850276947021,5.7055554389954,335f5352088d7d9bf74191e006d8e24c,Maastricht,c20ad4d76fe97759aa27a0c99bff6710,1674
GR,Gorinchem,51.833889007568,4.9683332443237,a5e00132373a7031000fd987a3c9f87b,Gorinchem,45c48cce2e2d7fbdea1afc51c7c6ad26,217
ZTM,Zoetermeer,52.047500610352,4.4772224426269,82161242827b703e6acf9c726942a1e4,Zoetermeer,45c48cce2e2d7fbdea1afc51c7c6ad26,16
ZV,Zevenaar,51.923053741455,6.0719442367554,f033ab37c30201f73f142449d037028d,Zevenaar,1679091c5a880faf6fb5e6087eb1b2dc,94
MP,Meppel,52.69083404541,6.1975002288818,b6d767d2f8ed5d21a44b0e5886680cb9,Meppel,eccbc87e4b5ce2fe28308fd9f2a7baf3,86
BD,Breda,51.595554351807,4.7800002098083,85d8ce590ad8981ca2c8286f79f59954,Breda,6512bd43d9caa6e02c990b0a82652dca,546
WAD,Waddinxveen,52.044166564941,4.6497220993042,1ff8a7b5dc7a7d1f0ed65aaa29c04b1e,Waddinxveen,45c48cce2e2d7fbdea1afc51c7c6ad26,6
SHL,Schiphol Airport,52.30944442749,4.7619442939758,eb160de1de89d9058fcb0b968dbbbd68,Haarlemmermeer,c9f0f895fb98ab9159f51fd0297e236d,36
ODZ,Oldenzaal,52.30638885498,6.9347224235535,1c383cd30b7c298ab50293adfecb7b18,Oldenzaal,a87ff679a2f3e71d9181a67b7542122c,22
DN,Deurne,51.455833435059,5.7888889312744,0e65972dce68dad4d52d063967f0a705,Deurne,6512bd43d9caa6e02c990b0a82652dca,56
OT,Oisterwijk,51.582221984863,5.1941666603088,ca46c1b9512a7a8315fa3c5a946e8265,Oisterwijk,6512bd43d9caa6e02c990b0a82652dca,79
BTL,Boxtel,51.58433,5.31912,084b6fbb10729ed4da8c3d3f5a3ae7c9,Boxtel,6512bd43d9caa6e02c990b0a82652dca,90
KBK,Klarenbeek,52.17805480957,6.0836110115051,ad61ab143223efbc24c7d2583be69251,Voorst,1679091c5a880faf6fb5e6087eb1b2dc,166
DVD,Duivendrecht,52.323333740234,4.9363889694214,9b8619251a19057cff70779273e95aa6,Ouder-Amstel,c9f0f895fb98ab9159f51fd0297e236d,36
VHP,Vroomshoop,52.4571921,6.5696679,20f07591c6fcb220ffe637cda29bb3f6,Twenterand,a87ff679a2f3e71d9181a67b7542122c,25
LAA,Den Haag Laan v NOI,52.078609466553,4.3427777290344,3fe94a002317b5f9259f82690aeea4cd,Leidschendam-Voorburg,45c48cce2e2d7fbdea1afc51c7c6ad26,124
SOG,Schin op Geul,50.856388092041,5.8722224235535,03c6b06952c750899bb03d998e631860,Valkenburg aan de Geul,c20ad4d76fe97759aa27a0c99bff6710,181
OP,Opheusden,51.9261615,5.6371145,49182f81e6a13cf5eaa496d51fea6406,Neder-Betuwe,1679091c5a880faf6fb5e6087eb1b2dc,48
OST,Olst,52.334720611572,6.1130557060242,26e359e83860db1d11b6acca57d8ea88,Olst-Wijhe,a87ff679a2f3e71d9181a67b7542122c,114
NH,Nuth,50.919445037842,5.8927779197693,cd00692c3bfe59267d5ecfac5310286c,Beekdaelen,c20ad4d76fe97759aa27a0c99bff6710,252
HZE,Heeze,51.384998321533,5.5694446563721,e56954b4f6347e897f954495eab16a88,Heeze-Leende,6512bd43d9caa6e02c990b0a82652dca,46
VD,Vorden,52.1071949,6.3170457,11b9842e0a271ff252c1903e7132cd68,Bronckhorst,1679091c5a880faf6fb5e6087eb1b2dc,352
ZVT,Zandvoort aan Zee,52.3752784729,4.5327777862549,3988c7f88ebcb58c6ce932b957b6f332,Zandvoort,c9f0f895fb98ab9159f51fd0297e236d,12
GZ,Gilze-Rijen,51.583610534668,4.9261112213135,eae27d77ca20db309e056e3d2dcd7d69,Gilze en Rijen,6512bd43d9caa6e02c990b0a82652dca,93
BDM,Bedum,53.3068857,6.593054,2f2b265625d76a6704b08093c652fd79,Het Hogeland,c4ca4238a0b923820dcc509a6f75849b,562
RD,Roodeschool,53.421262,6.7587,2f2b265625d76a6704b08093c652fd79,Het Hogeland,c4ca4238a0b923820dcc509a6f75849b,562
UHM,Uithuizermeeden,53.4145845,6.7202975,2f2b265625d76a6704b08093c652fd79,Het Hogeland,c4ca4238a0b923820dcc509a6f75849b,562
BSD,Beesd,51.899444580078,5.1944446563721,6da37dd3139aa4d9aa55b8d237ec5d4a,West Betuwe,1679091c5a880faf6fb5e6087eb1b2dc,323
HGL,Hengelo,52.261665344238,6.7938890457153,c16a5320fa475530d9583c34fd356ef5,Hengelo (O.),a87ff679a2f3e71d9181a67b7542122c,77
BP,Buitenpost,53.2564547,6.1446496,1679091c5a880faf6fb5e6087eb1b2dc,Achtkarspelen,c81e728d9d4c2f636f067f89cc14862c,66
BZL,Kapelle-Biezelinge,51.480834960938,3.9561111927033,4c5bde74a8f110656874902f07378009,Kapelle,d3d9446802a44259755d38e6d163e820,49
SDM,Schiedam Centrum,51.921243812803,4.4089937210083,5878a7ab84fb43402106c575658472fa,Schiedam,45c48cce2e2d7fbdea1afc51c7c6ad26,236
HLO,Heiloo,52.599445343018,4.7005553245544,da4fb5c6e93e74d3df8527599fa62642,Heiloo,c9f0f895fb98ab9159f51fd0297e236d,45
RM,Roermond,51.193054199219,5.9941668510437,9188905e74c28e489b44e954ec0b9bca,Roermond,c20ad4d76fe97759aa27a0c99bff6710,296
ZWD,Zwijndrecht,51.814998626709,4.6416668891907,96da2f590cd7246bbde0051047b0d6f7,Zwijndrecht,45c48cce2e2d7fbdea1afc51c7c6ad26,14
CL,Culemborg,51.946666717529,5.2269444465637,c0c7c76d30bd3dcaefc96f40275bdc0a,Culemborg,1679091c5a880faf6fb5e6087eb1b2dc,141
O,Oss,51.765556335449,5.5322222709656,45fbc6d3e05ebd93369ce542e8f2322d,Oss,6512bd43d9caa6e02c990b0a82652dca,239
LEDN,Leiden Centraal,52.166110992432,4.4816665649414,2a79ea27c279e471f4d180b08d62b00a,Leiden,45c48cce2e2d7fbdea1afc51c7c6ad26,1242
WC,Wijchen,51.811668395996,5.730833530426,35f4a8d465e6e1edc05f3d8ab658c551,Wijchen,1679091c5a880faf6fb5e6087eb1b2dc,97
HLG,Harlingen,53.1704205,5.4251932,c9f0f895fb98ab9159f51fd0297e236d,Harlingen,c81e728d9d4c2f636f067f89cc14862c,529
MES,Meerssen,50.882879392551,5.7509994506836,f340f1b1f65b6df5b5e3f94d95b11daf,Meerssen,c20ad4d76fe97759aa27a0c99bff6710,110
VS,Vlissingen,51.445835113525,3.5952777862549,9dcb88e0137649590b755372b040afad,Vlissingen,d3d9446802a44259755d38e6d163e820,313
HTN,Houten,52.03402,5.16821,8613985ec49eb8f757ae6439e879bb2a,Houten,8f14e45fceea167a5a36dedd4bea2543,147
DTC,Doetinchem,51.9585962,6.2962148,9a1158154dfa42caddbd0694a4e9bdc8,Doetinchem,1679091c5a880faf6fb5e6087eb1b2dc,35
SGL,Houthem-St. Gerlach,50.873332977295,5.7972221374512,03c6b06952c750899bb03d998e631860,Valkenburg aan de Geul,c20ad4d76fe97759aa27a0c99bff6710,181
MAS,Maarssen,52.135276794434,5.0336112976074,758874998f5bd0c393da094e1967a72b,Stichtse Vecht,8f14e45fceea167a5a36dedd4bea2543,794
SPTZ,Santpoort Zuid,52.419723510742,4.6313886642456,42a0e188f5033bc65bf8d78622277c4e,Velsen,c9f0f895fb98ab9159f51fd0297e236d,153
HOR,Hollandsche Rading,52.17777633667,5.1791667938232,93db85ed909c13838ff95ccfa94cebd9,De Bilt,8f14e45fceea167a5a36dedd4bea2543,174
DDN,Delden,52.259998321533,6.7161111831665,6883966fd8f918a4aa29be29d2c386fb,Hof van Twente,a87ff679a2f3e71d9181a67b7542122c,388
DB,Driebergen-Zeist,52.065277099609,5.25861120224,d96409bf894217686ba124d7356686c9,Utrechtse Heuvelrug,8f14e45fceea167a5a36dedd4bea2543,476
MRN,Maarn,52.064167022705,5.3699998855591,d96409bf894217686ba124d7356686c9,Utrechtse Heuvelrug,8f14e45fceea167a5a36dedd4bea2543,476
LUT,Geleen-Lutterade,50.975555419922,5.8247222900391,37bc2f75bf1bcfe8450a1a41c200364c,Sittard-Geleen,c20ad4d76fe97759aa27a0c99bff6710,258
MMLH,Mook-Molenhoek,51.766262,5.879133,e4a6222cdb5b34375400904f03d8e6a5,Mook en Middelaar,c20ad4d76fe97759aa27a0c99bff6710,20
MTH,Martenshoek,53.1607232,6.7402989,b83aac23b9528732c23cc7352950e880,Midden-Groningen,c4ca4238a0b923820dcc509a6f75849b,184
RB,Rilland-Bath,51.422779083252,4.1611108779907,6cdd60ea0045eb7a6ec44c54d29ed402,Reimerswaal,d3d9446802a44259755d38e6d163e820,31
STV,Stavoren,52.8865535,5.3600212,9dfcd5e558dfa04aaf37f137a1d9d3e5,Súdwest-Fryslân,c81e728d9d4c2f636f067f89cc14862c,733
HAD,Heemstede-Aerdenhout,52.35916519165,4.6066665649414,07e1cd7dca89a1678042477183b7ac3f,Heemstede,c9f0f895fb98ab9159f51fd0297e236d,107
HGLO,Hengelo Oost,52.268890380859,6.8194446563721,c16a5320fa475530d9583c34fd356ef5,Hengelo (O.),a87ff679a2f3e71d9181a67b7542122c,77
WZ,Wezep,52.454166412354,6.0025000572205,735b90b4568125ed6c3f678819b6e058,Oldebroek,1679091c5a880faf6fb5e6087eb1b2dc,43
AML,Almelo,52.358055114746,6.6538887023926,37693cfc748049e45d87b8c7d8b9aacd,Almelo,a87ff679a2f3e71d9181a67b7542122c,77
HK,Heemskerk,52.495277404785,4.6869444847107,5ef059938ba799aaa845e1c2e8a762bd,Heemskerk,c9f0f895fb98ab9159f51fd0297e236d,22
HLM,Haarlem,52.38777923584,4.6383333206177,c45147dee729311ef5b5c3003946c48f,Haarlem,c9f0f895fb98ab9159f51fd0297e236d,1176
PMR,Purmerend,52.50305557251,4.9536108970642,1afa34a7f984eeabdbb0a7d494132ee5,Purmerend,c9f0f895fb98ab9159f51fd0297e236d,118
RAT,Raalte,52.391666412354,6.2775001525879,a5bfc9e07964f8dddeb95fc584cd965d,Raalte,a87ff679a2f3e71d9181a67b7542122c,98
WDN,Wierden,52.361389160156,6.5916666984558,3416a75f4cea9109507cacd8e2f2aefc,Wierden,a87ff679a2f3e71d9181a67b7542122c,34
WD,Woerden,52.084999084473,4.8936109542847,bf8229696f7a3bb4700cfddef19fa23f,Woerden,8f14e45fceea167a5a36dedd4bea2543,110
AMF,Amersfoort Centraal,52.153888702393,5.3705554008484,68d30a9594728bc39aa24be94b319d21,Amersfoort,8f14e45fceea167a5a36dedd4bea2543,460
VDL,Voerendaal,50.887222290039,5.9302778244019,6c9882bbac1c7093bd25041881277658,Voerendaal,c20ad4d76fe97759aa27a0c99bff6710,100
LG,Landgraaf,50.896389007568,6.019166469574,be83ab3ecd0db773eb2dc1b0a17836a1,Landgraaf,c20ad4d76fe97759aa27a0c99bff6710,176
UTG,Uitgeest,52.521667480469,4.7016668319702,02522a2b2726fb0a03bb19f2d8d9524d,Uitgeest,c9f0f895fb98ab9159f51fd0297e236d,20
BNK,Bunnik,52.063056945801,5.1944446563721,c7e1249ffc03eb9ded908c236bd1996d,Bunnik,8f14e45fceea167a5a36dedd4bea2543,135
LW,Leeuwarden,53.195835113525,5.7922220230103,d3d9446802a44259755d38e6d163e820,Leeuwarden,c81e728d9d4c2f636f067f89cc14862c,822
BMN,Brummen,52.091110229492,6.1469445228577,642e92efb79421734881b53e1e1b18b6,Brummen,1679091c5a880faf6fb5e6087eb1b2dc,109
CO,Coevorden,52.663612365723,6.7355556488037,1f0e3dad99908345f7439f8ffabdffc4,Coevorden,eccbc87e4b5ce2fe28308fd9f2a7baf3,155
VL,Venlo,51.363609313965,6.1727776527405,621bf66ddb7c962aa0d22ac97d69b793,Venlo,c20ad4d76fe97759aa27a0c99bff6710,213
VST,Voorschoten,52.1252784729,4.4324998855591,a4a042cf4fd6bfb47701cbc8a1653ada,Voorschoten,45c48cce2e2d7fbdea1afc51c7c6ad26,106
UT,Utrecht Centraal,52.088890075684,5.1102776527405,e2ef524fbf3d9fe611d5a8e90fefdc9c,Utrecht,8f14e45fceea167a5a36dedd4bea2543,1590
ALM,Almere Centrum,52.37503,5.21764,c81e728d9d4c2f636f067f89cc14862c,Almere,e4da3b7fbbce2345d7772b0674a318d5,15
KPN,Kampen,52.559722900391,5.9216666221619,6364d3f0f495b6ab9dcf8d3b5c6e0b01,Kampen,a87ff679a2f3e71d9181a67b7542122c,531
ASN,Assen,52.991664886475,6.5708332061768,6f4922f45568161a8cdf4ad2299f6d23,Assen,eccbc87e4b5ce2fe28308fd9f2a7baf3,136
GK,Grijpskerk,53.255740325573,6.3097786903381,f9b902fc3289af4dd08de5d1de54f68f,Westerkwartier,c4ca4238a0b923820dcc509a6f75849b,256
GVM,Den Haag Mariahoeve,52.090557098389,4.3694443702698,3fe94a002317b5f9259f82690aeea4cd,Leidschendam-Voorburg,45c48cce2e2d7fbdea1afc51c7c6ad26,124
NDB,Naarden-Bussum,52.280277252197,5.1569442749023,5737c6ec2e0716f3d8a7a5c4e0de0d9a,Gooise Meren,c9f0f895fb98ab9159f51fd0297e236d,315
SN,Schinnen,50.939167022705,5.8744444847107,cd00692c3bfe59267d5ecfac5310286c,Beekdaelen,c20ad4d76fe97759aa27a0c99bff6710,252
SPTN,Santpoort Noord,52.43388748169,4.6325001716614,42a0e188f5033bc65bf8d78622277c4e,Velsen,c9f0f895fb98ab9159f51fd0297e236d,153
BHV,Bilthoven,52.130001068115,5.2038888931274,93db85ed909c13838ff95ccfa94cebd9,De Bilt,8f14e45fceea167a5a36dedd4bea2543,174
BK,Beek-Elsloo,50.947498321533,5.7866668701172,38db3aed920cf82ab059bfccbd02be6a,Stein (L.),c20ad4d76fe97759aa27a0c99bff6710,66
GO,Goor,52.230278015137,6.5844445228577,6883966fd8f918a4aa29be29d2c386fb,Hof van Twente,a87ff679a2f3e71d9181a67b7542122c,388
DID,Didam,51.933502,6.1324106,6faa8040da20ef399b63a72d0e4ab575,Montferland,1679091c5a880faf6fb5e6087eb1b2dc,53
HON,Holten,52.283889770508,6.42027759552,d296c101daa88a51f6ca8cfc1ac79b50,Rijssen-Holten,a87ff679a2f3e71d9181a67b7542122c,31
STM,Stedum,53.3262092,6.6875551,819f46e52c25763a55cc642422644317,Eemsdelta,c4ca4238a0b923820dcc509a6f75849b,397
AKL,Arkel,51.87194442749,4.9927778244019,357a6fdf7642bf815a88822c447d9dc4,Molenlanden,45c48cce2e2d7fbdea1afc51c7c6ad26,269
KMA,Krommenie-Assendelft,52.49511,4.75417,013d407166ec4fa56eb1e1f8cbe183b9,Zaanstad,c9f0f895fb98ab9159f51fd0297e236d,275
KRG,Kruiningen-Yerseke,51.465000152588,4.0372223854065,6cdd60ea0045eb7a6ec44c54d29ed402,Reimerswaal,d3d9446802a44259755d38e6d163e820,31
WK,Workum,52.9724864,5.4564285,9dfcd5e558dfa04aaf37f137a1d9d3e5,Súdwest-Fryslân,c81e728d9d4c2f636f067f89cc14862c,733
WSM,Winsum,53.3300994,6.5202905,2f2b265625d76a6704b08093c652fd79,Het Hogeland,c4ca4238a0b923820dcc509a6f75849b,562
EEM,Eemshaven,53.458419,6.832,unknown,unknown,unknown,0
AMR,Alkmaar,52.63777923584,4.7397222518921,65b9eea6e1cc6bb9f0cd2a47751a186f,Alkmaar,c9f0f895fb98ab9159f51fd0297e236d,576
ETN,Etten-Leur,51.57500076294,4.6358332633972,e2c0be24560d78c5e599c2a9c9d0bbd2,Etten-Leur,6512bd43d9caa6e02c990b0a82652dca,77
ZL,Zwolle,52.504722595215,6.0919442176819,a1d0c6e83f027327d8461063f4ac58a6,Zwolle,a87ff679a2f3e71d9181a67b7542122c,481
DV,Deventer,52.257499694824,6.1605553627014,4e732ced3463d06de0ca9a15b6153677,Deventer,a87ff679a2f3e71d9181a67b7542122c,585
NKK,Nijkerk,52.222221374512,5.4938888549805,fc490ca45c00b1249bbe3554a4fdf6fb,Nijkerk,1679091c5a880faf6fb5e6087eb1b2dc,110
HRL,Heerlen,50.89083480835,5.9749999046326,ac1dd209cbcc5e5d1c6e28598e8cbbe8,Heerlen,c20ad4d76fe97759aa27a0c99bff6710,154
DRON,Dronten,52.5344,5.72089,fe9fc289c3ff0af142b6d3bead98a923,Dronten,e4da3b7fbbce2345d7772b0674a318d5,3
ST,Soest,52.173332214355,5.3099999427795,26657d5ff9020d2abefe558796b99584,Soest,8f14e45fceea167a5a36dedd4bea2543,42
LLS,Lelystad Centrum,52.507778167725,5.4727778434753,c24cd76e1ce41366a4bbe8a49b02a028,Lelystad,e4da3b7fbbce2345d7772b0674a318d5,2
HDB,Hardenberg,52.572776794434,6.6286110877991,6ea9ab1baa0efb9e19094440c317e21b,Hardenberg,a87ff679a2f3e71d9181a67b7542122c,92
AH,Arnhem Centraal,51.985000610352,5.8991665840149,6c8349cc7260ae62e3b1396831a8398f,Arnhem,1679091c5a880faf6fb5e6087eb1b2dc,565
HGV,Hoogeveen,52.733890533447,6.4736108779907,3c59dc048e8850243be8079a5c74d079,Hoogeveen,eccbc87e4b5ce2fe28308fd9f2a7baf3,27
HN,Hoorn,52.644721984863,5.0555553436279,202cb962ac59075b964b07152d234b70,Hoorn,c9f0f895fb98ab9159f51fd0297e236d,378
RH,Rheden,52.0101,6.0314,7cbbc409ec990f19c78c75bd1e06f215,Rheden,1679091c5a880faf6fb5e6087eb1b2dc,211
RSD,Roosendaal,51.540279388428,4.4583334922791,06138bc5af6023646ede0e1f7c1eac75,Roosendaal,6512bd43d9caa6e02c990b0a82652dca,91
MDB,Middelburg,51.494720458984,3.6172223091126,cedebb6e872f539bef8c3f919874e9d7,Middelburg (Z.),d3d9446802a44259755d38e6d163e820,1156
TWL,Twello,52.237777709961,6.0986108779907,ad61ab143223efbc24c7d2583be69251,Voorst,1679091c5a880faf6fb5e6087eb1b2dc,166
BKL,Breukelen,52.17149,4.9906,758874998f5bd0c393da094e1967a72b,Stichtse Vecht,8f14e45fceea167a5a36dedd4bea2543,794
DRH,Driehuis,52.442501068115,4.6380553245544,42a0e188f5033bc65bf8d78622277c4e,Velsen,c9f0f895fb98ab9159f51fd0297e236d,153
BL,Beilen,52.854721069336,6.5211110115051,1700002963a49da13542e0726b7bb758,Midden-Drenthe,eccbc87e4b5ce2fe28308fd9f2a7baf3,72
VH,Voorhout,52.224445343018,4.4844446182251,f718499c1c8cef6730f9fd03c8125cab,Teylingen,45c48cce2e2d7fbdea1afc51c7c6ad26,104
NVD,Nijverdal,52.366111,6.462,34173cb38f07f89ddbebc2ac9128303f,Hellendoorn,a87ff679a2f3e71d9181a67b7542122c,30
STD,Sittard,51.001667022705,5.8586111068726,37bc2f75bf1bcfe8450a1a41c200364c,Sittard-Geleen,c20ad4d76fe97759aa27a0c99bff6710,258
TBG,Terborg,51.9224549,6.3642466,fe131d7f5a6b38b23cc967316c13dae2,Oude IJsselstreek,1679091c5a880faf6fb5e6087eb1b2dc,80
NWK,Nieuwerkerk a/d IJssel,51.965278625488,4.6169443130493,8e98d81f8217304975ccb23337bb5761,Zuidplas,45c48cce2e2d7fbdea1afc51c7c6ad26,59
WM,Wormerveer,52.489166259766,4.7922220230103,013d407166ec4fa56eb1e1f8cbe183b9,Zaanstad,c9f0f895fb98ab9159f51fd0297e236d,275
RV,Reuver,51.28321916653,6.0789585113525,289dff07669d7a23de0ef88d2f7129e7,Beesel,c20ad4d76fe97759aa27a0c99bff6710,21
OTB,Oosterbeek,51.994998931885,5.8400001525879,14bfa6bb14875e45bba028a21ed38046,Renkum,1679091c5a880faf6fb5e6087eb1b2dc,73
WF,Wolfheze,52.005554199219,5.7936110496521,14bfa6bb14875e45bba028a21ed38046,Renkum,1679091c5a880faf6fb5e6087eb1b2dc,73
RL,Ruurlo,52.0810888,6.4492656,577bcc914f9e55d5e4e4f82f9f00e7d4,Berkelland,1679091c5a880faf6fb5e6087eb1b2dc,122
KBD,Krabbendijke,51.433334350586,4.1169443130493,6cdd60ea0045eb7a6ec44c54d29ed402,Reimerswaal,d3d9446802a44259755d38e6d163e820,31
HNP,Hindeloopen,52.9464903,5.423063,9dfcd5e558dfa04aaf37f137a1d9d3e5,Súdwest-Fryslân,c81e728d9d4c2f636f067f89cc14862c,733
SKND,Sneek Noord,53.0409319,5.6631808,9dfcd5e558dfa04aaf37f137a1d9d3e5,Súdwest-Fryslân,c81e728d9d4c2f636f067f89cc14862c,733
MZ,Maarheeze,51.304986,5.629796,92c8c96e4c37100777c7190b76d28233,Cranendonck,6512bd43d9caa6e02c990b0a82652dca,38
SWD,Sauwerd,53.29113,6.5404,2f2b265625d76a6704b08093c652fd79,Het Hogeland,c4ca4238a0b923820dcc509a6f75849b,562
UST,Usquert,53.4014742,6.6093776,2f2b265625d76a6704b08093c652fd79,Het Hogeland,c4ca4238a0b923820dcc509a6f75849b,562
DEI,Deinum,53.1888115,5.7281572,89f0fd5c927d466d6ec9a21b9ac34ffa,Waadhoeke,c81e728d9d4c2f636f067f89cc14862c,503
FN,Franeker,53.1824488,5.5483094,89f0fd5c927d466d6ec9a21b9ac34ffa,Waadhoeke,c81e728d9d4c2f636f067f89cc14862c,503
ZVB,Zevenbergen,51.64042,4.60904,6a9aeddfc689c1d0e3b9ccc3ab651bc5,Moerdijk,6512bd43d9caa6e02c990b0a82652dca,122
OBD,Obdam,52.67805480957,4.9072222709656,cfa0860e83a4c3a763a7e62d825349f7,Koggenland,c9f0f895fb98ab9159f51fd0297e236d,37
